OBJECT_NAME,OBJECT_ID,EPOCH,MEAN_MOTION,ECCENTRICITY,INCLINATION,RA_OF_ASC_NODE,ARG_OF_PERICENTER,MEAN_ANOMALY,EPHEMERIS_TYPE,CLASSIFICATION_TYPE,NORAD_CAT_ID,ELEMENT_SET_NO,REV_AT_EPOCH,BSTAR,MEAN_MOTION_DOT,MEAN_MOTION_DDOT
OSCAR 7 (AO-7),1974-089B,2026-06-27T00:56:56.840064,12.53698230,.00126434,101.9899,191.3888,111.8939,316.9685,0,U,7530,999,36175,.10420583E-3,-.3E-6,0
PHASE 3B (AO-10),1983-058B,2026-06-26T14:17:11.121504,2.05872938,.60076223,25.9202,218.0092,118.2548,314.1516,0,U,14129,999,29568,0,-.217E-5,0
UOSAT 2 (UO-11),1984-021B,2026-06-27T03:43:20.812800,14.90807044,.00084977,97.8062,143.6186,141.6866,218.4958,0,U,14781,999,25861,.12711977E-3,.1195E-4,0
LUSAT (LO-19),1990-005G,2026-06-27T07:09:43.501824,14.34126057,.00117121,98.8847,200.3825,171.1543,188.9849,0,U,20442,999,90384,.60289315E-4,.122E-5,0
EYESAT A (AO-27),1993-061C,2026-06-27T03:19:54.492096,14.30944709,.00094788,98.6877,245.5486,74.1419,286.0808,0,U,22825,999,70842,.50002183E-4,.87E-6,0
ITAMSAT (IO-26),1993-061D,2026-06-27T04:26:38.778720,14.31371902,.000986,98.6824,245.5135,58.9452,301.2698,0,U,22826,999,70874,.50146149E-4,.88E-6,0
RADIO ROSTO (RS15),1994-085A,2026-06-27T01:10:47.339328,11.27583418,.0156279,64.8184,287.2670,2.0531,358.1003,0,U,23439,999,29701,-.25428514E-3,-.51E-6,0
JAS-2 (FO-29),1996-046B,2026-06-27T07:00:44.642304,13.53274805,.03508929,98.5231,25.7796,70.2891,293.5744,0,U,24278,999,47453,.18032215E-4,-.15E-6,0
TECHSAT 1B (GO-32),1998-043D,2026-06-27T05:59:27.059136,14.24430252,.00015558,99.0071,171.2622,144.1868,215.9414,0,U,25397,999,45276,.46180886E-4,.6E-6,0
ISS (ZARYA),1998-067A,2026-06-27T06:02:08.359296,15.49452150,.00042843,51.6322,250.2737,237.3448,122.7128,0,U,25544,999,57331,.14015541E-3,.7401E-4,0
PCSAT (NO-44),2001-043C,2026-06-27T06:53:06.849312,14.31959206,.00060385,67.0492,218.1495,265.1683,94.8730,0,U,26931,999,29189,.64761823E-4,.91E-6,0
SAUDISAT 1C (SO-50),2002-058C,2026-06-27T04:51:48.962592,14.83066892,.00750304,64.5520,97.9980,260.6035,98.6583,0,U,27607,999,26594,.12875872E-3,.946E-5,0
CUTE-1 (CO-55),2003-031E,2026-06-27T07:02:27.066912,14.24341593,.00101531,98.6736,186.7252,149.6738,210.5031,0,U,27844,999,19311,.14447339E-3,.29E-5,0
CUBESAT XI-IV (CO-57),2003-031J,2026-06-26T22:27:05.834016,14.23625736,.0009653,98.6768,186.0767,168.4758,191.6643,0,U,27848,999,19276,.1258E-3,.243E-5,0
MOZHAETS 4 (RS22),2003-042A,2026-06-27T08:12:06.155424,14.73483100,.00100709,98.3471,2.9875,233.1070,248.6192,0,U,27939,999,21704,.10609957E-3,.635E-5,0
CUBESAT XI-V,2005-043F,2026-06-26T21:57:38.655072,14.72656457,.0014316,98.2993,333.7414,169.8184,190.3315,0,U,28895,999,10318,.23373E-3,.1438E-4,0
CUTE-1.7+APD II (CO-65),2008-021C,2026-06-27T06:12:04.141728,15.09544451,.00087295,97.8271,159.8869,7.6473,352.4887,0,U,32785,999,98671,.30558966E-3,.484E-4,0
SEEDS II (CO-66),2008-021J,2026-06-27T06:05:09.251520,15.33086255,.00006008,97.7515,176.6340,209.4374,150.6834,0,U,32791,999,98883,.6147077E-3,.19593E-3,0
YUBILEINY (RS30),2008-025A,2026-06-27T05:43:43.440672,12.43180277,.00185647,82.5045,349.1866,290.7760,69.1330,0,U,32953,999,82094,.70984386E-3,.108E-5,0
KKS-1 (KISEKI),2009-002H,2026-06-27T05:47:47.397984,14.83148150,.00063951,98.1187,100.8432,255.9703,104.0799,0,U,33499,999,93768,.1716042E-3,.1344E-4,0
SWISSCUBE,2009-051B,2026-06-27T05:25:23.528928,14.62499621,.00066941,98.4029,86.2889,170.0562,190.0773,0,U,35932,999,89062,.2061213E-3,.996E-5,0
BEESAT-1,2009-051C,2026-06-26T16:37:56.369856,14.61734342,.00048484,98.3957,85.3622,183.3217,176.7952,0,U,35933,999,89057,.16075564E-3,.752E-5,0
ITUPSAT1,2009-051E,2026-06-26T16:36:48.655584,14.60453570,.00067507,98.4042,84.5432,199.9772,160.1164,0,U,35935,999,89012,.15443273E-3,.7E-5,0
XIWANG-1 (HOPE-1),2009-072B,2026-06-27T06:37:06.044160,13.16440218,.00070487,100.4023,131.9468,206.7617,153.3133,0,U,36122,999,79433,.96934097E-4,-.7E-7,0
O/OREOS (USA 219),2010-062C,2026-06-27T00:58:25.152960,14.93783616,.00129239,71.9714,58.0196,42.0426,318.1734,0,U,37224,999,11811,.22310226E-3,.2307E-4,0
JUGNU,2011-058B,2026-06-26T21:55:50.744928,14.13779071,.0018444,19.9597,249.3371,183.2856,332.8974,0,U,37839,999,76040,.71065E-4,.404E-5,0
SRMSAT,2011-058D,2026-06-27T04:57:06.645024,14.11577536,.0011727,19.9735,358.8265,314.5587,200.6524,0,U,37841,999,75923,.58206686E-4,.372E-5,0
STRAND-1,2013-009E,2026-06-26T22:36:53.601120,14.37168802,.0008273,98.3924,357.9366,193.8738,166.2222,0,U,39090,999,69846,.11041E-3,.286E-5,0
ZACUBE-1 (TSHEPISOSAT),2013-066B,2026-06-27T03:19:56.196768,15.01240877,.00421836,97.8047,140.5267,213.8179,146.0354,0,U,39417,999,68222,.26151269E-3,.3358E-4,0
GOMX-1,2013-066Q,2026-06-27T06:19:37.593984,14.69493788,.01297921,97.6484,18.0903,45.5773,315.5969,0,U,39430,999,67139,.31240729E-3,.2057E-4,0
